STARLINK-32151          
1 60299U 24132X   26068.27652203  .00000598  00000+0  32345-4 0  9999
2 60299  53.1616  25.9023 0001195  75.1928 284.9205 15.30180538 91890
SCS-01 D                
1 63985U 25100D   26068.75607686  .00032471  00000+0  10528-2 0  9990
2 63985  97.3730 145.4097 0006346 266.2302  93.8214 15.31902149 45621
